[{"OBJECT_NAME":"FLOCK 4G-8","OBJECT_ID":"2025-009E","EPOCH":"2026-03-09T17:22:17.546016","MEAN_MOTION":15.27623414,"ECCENTRICITY":0.00030503,"INCLINATION":97.4045,"RA_OF_ASC_NODE":151.2834,"ARG_OF_PERICENTER":315.2538,"MEAN_ANOMALY":44.8455,"EPHEMERIS_TYPE":0,"CLASSIFICATION_TYPE":"U","NORAD_CAT_ID":62613,"ELEMENT_SET_NO":999,"REV_AT_EPOCH":6372,"BSTAR":0.0005043806,"MEAN_MOTION_DOT":0.00013559,"MEAN_MOTION_DDOT":0},{"OBJECT_NAME":"STARLINK-33642","OBJECT_ID":"2025-099AC","EPOCH":"2026-03-09T08:10:34.260384","MEAN_MOTION":15.2758281,"ECCENTRICITY":0.00014495,"INCLINATION":42.9947,"RA_OF_ASC_NODE":174.656,"ARG_OF_PERICENTER":170.947,"MEAN_ANOMALY":189.1408,"EPHEMERIS_TYPE":0,"CLASSIFICATION_TYPE":"U","NORAD_CAT_ID":63978,"ELEMENT_SET_NO":999,"REV_AT_EPOCH":4723,"BSTAR":0.00092268435,"MEAN_MOTION_DOT":0.00025217,"MEAN_MOTION_DDOT":0}]
