FLOCK 4G-8              
1 62613U 25009E   26068.72381419  .00013559  00000+0  50438-3 0  9996
2 62613  97.4045 151.2834 0003050 315.2538  44.8455 15.27623414 63721
STARLINK-33642          
1 63978U 25099AC  26068.34067431  .00025217  00000+0  92268-3 0  9994
2 63978  42.9947 174.6560 0001449 170.9470 189.1408 15.27582810 47231
